{"fetched_at":"2026-07-08T17:59:51.887Z","source":"https://celestrak.org/NORAD/elements/gp.php?NAME=JILIN&FORMAT=JSON","constellation":"jilin-1-gaofen","records":[{"OBJECT_NAME":"JILIN-1 GAOFEN 03D51","OBJECT_ID":"2022-155B","EPOCH":"2026-07-08T13:00:56.854944","CLASSIFICATION_TYPE":"U","MEAN_MOTION":15.64319987,"ECCENTRICITY":0.000403,"INCLINATION":97.6246,"RA_OF_ASC_NODE":336.0278,"ARG_OF_PERICENTER":256.8857,"MEAN_ANOMALY":103.1952,"EPHEMERIS_TYPE":0,"NORAD_CAT_ID":54252,"ELEMENT_SET_NO":999,"REV_AT_EPOCH":20308,"BSTAR":0.00044422,"MEAN_MOTION_DOT":0.00042441,"MEAN_MOTION_DDOT":0},{"OBJECT_NAME":"JILIN-1 GAOFEN 03D53","OBJECT_ID":"2022-155C","EPOCH":"2026-07-08T11:26:14.192160","CLASSIFICATION_TYPE":"U","MEAN_MOTION":15.54101202,"ECCENTRICITY":0.0004678,"INCLINATION":97.6237,"RA_OF_ASC_NODE":331.2705,"ARG_OF_PERICENTER":280.7546,"MEAN_ANOMALY":79.318,"EPHEMERIS_TYPE":0,"NORAD_CAT_ID":54253,"ELEMENT_SET_NO":999,"REV_AT_EPOCH":20279,"BSTAR":0.00038923,"MEAN_MOTION_DOT":0.00025203,"MEAN_MOTION_DDOT":0},{"OBJECT_NAME":"JILIN-1 GAOFEN 03D52","OBJECT_ID":"2022-155E","EPOCH":"2026-07-08T12:26:58.799040","CLASSIFICATION_TYPE":"U","MEAN_MOTION":15.61567783,"ECCENTRICITY":0.000342,"INCLINATION":97.6221,"RA_OF_ASC_NODE":334.2456,"ARG_OF_PERICENTER":275.8817,"MEAN_ANOMALY":84.205,"EPHEMERIS_TYPE":0,"NORAD_CAT_ID":54255,"ELEMENT_SET_NO":999,"REV_AT_EPOCH":20303,"BSTAR":0.00043895,"MEAN_MOTION_DOT":0.00037647,"MEAN_MOTION_DDOT":0},{"OBJECT_NAME":"JILIN-1 GAOFEN 03D50","OBJECT_ID":"2022-167J","EPOCH":"2026-07-08T12:20:23.332416","CLASSIFICATION_TYPE":"U","MEAN_MOTION":15.34965079,"ECCENTRICITY":0.0005759,"INCLINATION":97.6851,"RA_OF_ASC_NODE":358.2371,"ARG_OF_PERICENTER":42.6969,"MEAN_ANOMALY":317.472,"EPHEMERIS_TYPE":0,"NORAD_CAT_ID":54690,"ELEMENT_SET_NO":999,"REV_AT_EPOCH":19862,"BSTAR":0.00020882,"MEAN_MOTION_DOT":0.00006999,"MEAN_MOTION_DDOT":0},{"OBJECT_NAME":"JILIN-1 GAOFEN 03D47","OBJECT_ID":"2022-167L","EPOCH":"2026-07-08T12:21:30.981888","CLASSIFICATION_TYPE":"U","MEAN_MOTION":15.34251887,"ECCENTRICITY":0.0008296,"INCLINATION":97.6949,"RA_OF_ASC_NODE":359.9747,"ARG_OF_PERICENTER":50.6368,"MEAN_ANOMALY":309.5607,"EPHEMERIS_TYPE":0,"NORAD_CAT_ID":54692,"ELEMENT_SET_NO":999,"REV_AT_EPOCH":19861,"BSTAR":0.00020931,"MEAN_MOTION_DOT":0.00006861,"MEAN_MOTION_DDOT":0},{"OBJECT_NAME":"JILIN-1 GAOFEN 03D49","OBJECT_ID":"2022-167N","EPOCH":"2026-07-08T13:07:04.738368","CLASSIFICATION_TYPE":"U","MEAN_MOTION":15.37931437,"ECCENTRICITY":0.0006435,"INCLINATION":97.6825,"RA_OF_ASC_NODE":0.6369,"ARG_OF_PERICENTER":68.8252,"MEAN_ANOMALY":291.3679,"EPHEMERIS_TYPE":0,"NORAD_CAT_ID":54694,"ELEMENT_SET_NO":999,"REV_AT_EPOCH":19877,"BSTAR":0.00023204,"MEAN_MOTION_DOT":0.00008572,"MEAN_MOTION_DDOT":0},{"OBJECT_NAME":"JILIN-1 GAOFEN 03D48","OBJECT_ID":"2022-167P","EPOCH":"2026-07-08T12:14:13.020288","CLASSIFICATION_TYPE":"U","MEAN_MOTION":15.3569362,"ECCENTRICITY":0.0006985,"INCLINATION":97.6897,"RA_OF_ASC_NODE":359.9417,"ARG_OF_PERICENTER":51.255,"MEAN_ANOMALY":308.9316,"EPHEMERIS_TYPE":0,"NORAD_CAT_ID":54695,"ELEMENT_SET_NO":999,"REV_AT_EPOCH":19866,"BSTAR":0.00021479,"MEAN_MOTION_DOT":0.00007374,"MEAN_MOTION_DDOT":0},{"OBJECT_NAME":"JILIN GAOFEN OBJECT A","OBJECT_ID":"2026-080A","EPOCH":"2026-07-06T18:42:42.845184","CLASSIFICATION_TYPE":"U","MEAN_MOTION":15.09144054,"ECCENTRICITY":0.00119065,"INCLINATION":97.6601,"RA_OF_ASC_NODE":263.2709,"ARG_OF_PERICENTER":4.6722,"MEAN_ANOMALY":355.4615,"EPHEMERIS_TYPE":0,"NORAD_CAT_ID":68691,"ELEMENT_SET_NO":999,"REV_AT_EPOCH":1261,"BSTAR":0.00023333317,"MEAN_MOTION_DOT":0.00003644,"MEAN_MOTION_DDOT":0},{"OBJECT_NAME":"JILIN GAOFEN OBJECT B","OBJECT_ID":"2026-080B","EPOCH":"2026-07-08T11:38:36.837312","CLASSIFICATION_TYPE":"U","MEAN_MOTION":15.09066296,"ECCENTRICITY":0.0015373,"INCLINATION":97.659,"RA_OF_ASC_NODE":264.9899,"ARG_OF_PERICENTER":337.5204,"MEAN_ANOMALY":22.5349,"EPHEMERIS_TYPE":0,"NORAD_CAT_ID":68692,"ELEMENT_SET_NO":999,"REV_AT_EPOCH":1287,"BSTAR":0.00024854,"MEAN_MOTION_DOT":0.00003881,"MEAN_MOTION_DDOT":0},{"OBJECT_NAME":"JILIN GAOFEN OBJECT C","OBJECT_ID":"2026-080C","EPOCH":"2026-07-06T20:16:12.874080","CLASSIFICATION_TYPE":"U","MEAN_MOTION":15.09128172,"ECCENTRICITY":0.00127303,"INCLINATION":97.6588,"RA_OF_ASC_NODE":263.3208,"ARG_OF_PERICENTER":345.3761,"MEAN_ANOMALY":14.7097,"EPHEMERIS_TYPE":0,"NORAD_CAT_ID":68693,"ELEMENT_SET_NO":999,"REV_AT_EPOCH":1262,"BSTAR":0.00024525317,"MEAN_MOTION_DOT":0.00003832,"MEAN_MOTION_DDOT":0},{"OBJECT_NAME":"JILIN GAOFEN OBJECT D","OBJECT_ID":"2026-080D","EPOCH":"2026-07-08T11:38:55.241376","CLASSIFICATION_TYPE":"U","MEAN_MOTION":15.08921079,"ECCENTRICITY":0.0017048,"INCLINATION":97.6655,"RA_OF_ASC_NODE":265.0596,"ARG_OF_PERICENTER":349.3887,"MEAN_ANOMALY":10.6979,"EPHEMERIS_TYPE":0,"NORAD_CAT_ID":68694,"ELEMENT_SET_NO":999,"REV_AT_EPOCH":1285,"BSTAR":0.00022904,"MEAN_MOTION_DOT":0.00003559,"MEAN_MOTION_DDOT":0},{"OBJECT_NAME":"JILIN GAOFEN OBJECT E","OBJECT_ID":"2026-080E","EPOCH":"2026-07-08T11:14:21.986592","CLASSIFICATION_TYPE":"U","MEAN_MOTION":15.09214873,"ECCENTRICITY":0.0013051,"INCLINATION":97.6636,"RA_OF_ASC_NODE":265.0619,"ARG_OF_PERICENTER":1.6272,"MEAN_ANOMALY":358.4997,"EPHEMERIS_TYPE":0,"NORAD_CAT_ID":68695,"ELEMENT_SET_NO":999,"REV_AT_EPOCH":1283,"BSTAR":0.00020236,"MEAN_MOTION_DOT":0.00003158,"MEAN_MOTION_DDOT":0},{"OBJECT_NAME":"JILIN GAOFEN OBJECT F","OBJECT_ID":"2026-080F","EPOCH":"2026-07-08T11:12:43.570944","CLASSIFICATION_TYPE":"U","MEAN_MOTION":15.09179204,"ECCENTRICITY":0.0014172,"INCLINATION":97.6607,"RA_OF_ASC_NODE":265.0321,"ARG_OF_PERICENTER":7.2323,"MEAN_ANOMALY":352.9107,"EPHEMERIS_TYPE":0,"NORAD_CAT_ID":68696,"ELEMENT_SET_NO":999,"REV_AT_EPOCH":1283,"BSTAR":0.00020542,"MEAN_MOTION_DOT":0.00003205,"MEAN_MOTION_DDOT":0},{"OBJECT_NAME":"JILIN GAOFEN OBJECT G","OBJECT_ID":"2026-080G","EPOCH":"2026-07-08T12:28:06.367296","CLASSIFICATION_TYPE":"U","MEAN_MOTION":15.09161362,"ECCENTRICITY":0.0014009,"INCLINATION":97.6649,"RA_OF_ASC_NODE":265.1648,"ARG_OF_PERICENTER":0.132,"MEAN_ANOMALY":359.991,"EPHEMERIS_TYPE":0,"NORAD_CAT_ID":68697,"ELEMENT_SET_NO":999,"REV_AT_EPOCH":1284,"BSTAR":0.00016131,"MEAN_MOTION_DOT":0.00002501,"MEAN_MOTION_DDOT":0},{"OBJECT_NAME":"JILIN GAOFEN OBJECT H","OBJECT_ID":"2026-080H","EPOCH":"2026-07-01T19:40:54.106752","CLASSIFICATION_TYPE":"U","MEAN_MOTION":15.09020248,"ECCENTRICITY":0.00154058,"INCLINATION":97.6647,"RA_OF_ASC_NODE":258.4665,"ARG_OF_PERICENTER":23.9908,"MEAN_ANOMALY":336.2035,"EPHEMERIS_TYPE":0,"NORAD_CAT_ID":68698,"ELEMENT_SET_NO":999,"REV_AT_EPOCH":1183,"BSTAR":0.00048995825,"MEAN_MOTION_DOT":0.00007709,"MEAN_MOTION_DDOT":0}]}
