JILIN-1 GAOFEN 03D51    
1 54252U 22155B   26189.54232471  .00042441  00000+0  44422-3 0  9990
2 54252  97.6246 336.0278 0004030 256.8857 103.1952 15.64319987203088
JILIN-1 GAOFEN 03D53    
1 54253U 22155C   26189.47655315  .00025203  00000+0  38923-3 0  9995
2 54253  97.6237 331.2705 0004678 280.7546  79.3180 15.54101202202792
JILIN-1 GAOFEN 03D52    
1 54255U 22155E   26189.51873610  .00037647  00000+0  43895-3 0  9991
2 54255  97.6221 334.2456 0003420 275.8817  84.2050 15.61567783203030
JILIN-1 GAOFEN 03D50    
1 54690U 22167J   26189.51415894  .00006999  00000+0  20882-3 0  9990
2 54690  97.6851 358.2371 0005759  42.6969 317.4720 15.34965079198622
JILIN-1 GAOFEN 03D47    
1 54692U 22167L   26189.51494192  .00006861  00000+0  20931-3 0  9993
2 54692  97.6949 359.9747 0008296  50.6368 309.5607 15.34251887198618
JILIN-1 GAOFEN 03D49    
1 54694U 22167N   26189.54658262  .00008572  00000+0  23204-3 0  9995
2 54694  97.6825   0.6369 0006435  68.8252 291.3679 15.37931437198772
JILIN-1 GAOFEN 03D48    
1 54695U 22167P   26189.50987292  .00007374  00000+0  21479-3 0  9991
2 54695  97.6897 359.9417 0006985  51.2550 308.9316 15.35693620198661
JILIN GAOFEN OBJECT A   
1 68691U 26080A   26187.77966256  .00003644  00000+0  23333-3 0  9991
2 68691  97.6601 263.2709 0011906   4.6722 355.4615 15.09144054 12610
JILIN GAOFEN OBJECT B   
1 68692U 26080B   26189.48514858  .00003881  00000+0  24854-3 0  9991
2 68692  97.6590 264.9899 0015373 337.5204  22.5349 15.09066296 12876
JILIN GAOFEN OBJECT C   
1 68693U 26080C   26187.84459345  .00003832  00000+0  24525-3 0  9990
2 68693  97.6588 263.3208 0012730 345.3761  14.7097 15.09128172 12628
JILIN GAOFEN OBJECT D   
1 68694U 26080D   26189.48536159  .00003559  00000+0  22904-3 0  9997
2 68694  97.6655 265.0596 0017048 349.3887  10.6979 15.08921079 12858
JILIN GAOFEN OBJECT E   
1 68695U 26080E   26189.46831003  .00003158  00000+0  20236-3 0  9993
2 68695  97.6636 265.0619 0013051   1.6272 358.4997 15.09214873 12839
JILIN GAOFEN OBJECT F   
1 68696U 26080F   26189.46717096  .00003205  00000+0  20542-3 0  9992
2 68696  97.6607 265.0321 0014172   7.2323 352.9107 15.09179204 12832
JILIN GAOFEN OBJECT G   
1 68697U 26080G   26189.51951814  .00002501  00000+0  16131-3 0  9994
2 68697  97.6649 265.1648 0014009   0.1320 359.9910 15.09161362 12846
JILIN GAOFEN OBJECT H   
1 68698U 26080H   26182.82007068  .00007709  00000+0  48996-3 0  9994
2 68698  97.6647 258.4665 0015405  23.9908 336.2035 15.09020248 11836
